ORBCOMM FM05            
1 25117U 97084F   24138.94757747  .00005174  00000+0  15796-2 0  9998
2 25117  45.0142 101.1444 0003156   8.5853 351.5051 14.42763797383467
ORBCOMM FM06            
1 25118U 97084G   24138.91184616  .00005668  00000+0  17246-2 0  9995
2 25118  45.0133 101.4792 0002298   7.0335  22.3429 14.42812322384396
ORBCOMM FM07            
1 25119U 97084H   24138.62089472  .00004572  00000+0  14021-2 0  9999
2 25119  45.0129 103.4096 0004048   3.0635 357.0239 14.42726645384327
ORBCOMM FM03            
1 25158U 98007B   24139.55187026  .00003487  00000+0  13231-2 0  9991
2 25158 107.9712  46.1987 0047642 219.5404 140.2255 14.32214945367632
ORBCOMM FM04            
1 25159U 98007C   24138.70103410  .00002915  00000+0  11107-2 0  9998
2 25159 107.9694  47.3977 0043175 218.9526 140.8499 14.32472478367542
ORBCOMM FM17            
1 25413U 98046A   24138.88110633  .00002808  00000+0  10633-2 0  9992
2 25413  44.9948 320.5271 0001676  43.6257 316.4722 14.33189836346422
ORBCOMM FM18            
1 25414U 98046B   24139.55699522  .00004272  00000+0  15051-2 0  9993
2 25414  44.9924 244.2688 0002825 119.0222 241.0909 14.35972956347648
ORBCOMM FM19            
1 25415U 98046C   24138.62231484  .00003739  00000+0  13282-2 0  9991
2 25415  44.9934 250.1082 0001549 114.0037 260.5228 14.35799215347303
